0 CZ-4 DEB
1 26755U 99057MC  13281.51205012  .00003200  00000-0  67441-3 0  6948
2 26755 098.2457 013.1876 0078235 266.5563 150.8788 14.58264870664150
0 CZ-4 DEB
1 26755U 99057MC  13283.03436404  .00004371  00000-0  91667-3 0  6956
2 26755 098.2457 014.6976 0078279 261.7930 222.7324 14.58282958664376
0 CZ-4 DEB
1 26755U 99057MC  13287.48120605  .00004454  00000-0  93311-3 0  6974
2 26755 098.2466 019.1081 0078395 247.8442 168.2243 14.58313152665023
0 CZ-4 DEB
1 26755U 99057MC  13289.47166903  .00005885  00000-0  12284-2 0  6985
2 26755 098.2470 021.0830 0078490 241.6283 178.1365 14.58336414665316
0 CZ-4 DEB
1 26755U 99057MC  13291.81755606  .00005456  00000-0  11389-2 0  6990
2 26755 098.2469 023.4105 0078607 234.3098 254.2009 14.58360506665655
0 CZ-4 DEB
1 26755U 99057MC  13294.08012197  .00006798  00000-0  14154-2 0  7009
2 26755 098.2464 025.6556 0078667 227.2806 253.0011 14.58383858665989
0 CZ-4 DEB
1 26755U 99057MC  13295.50869334  .00007724  00000-0  16060-2 0  7019
2 26755 098.2460 027.0725 0078762 222.8197 193.3120 14.58395278666199
